[
    {
        "Altitude(m)": 611965.2031976148,
        "Argument of Periapsis(deg)": 0.0,
        "Eccentricity": 0.0,
        "Inclination(deg)": 60.0,
        "Latitude(deg)": 59.140215646945876,
        "Longitude(deg)": 8.96962799557457,
        "Mean Anomaly(deg)": 81.81820000000002,
        "RAAN(deg)": 35.0,
        "Satellite Name": "Test1 159",
        "Satellite Number": 159,
        "Semi-Major Axis(m)": 6980739.136638005,
        "Time(s)": 0
    },
    {
        "Altitude(m)": 611995.8293919532,
        "Argument of Periapsis(deg)": 0.00010418945913296404,
        "Eccentricity": 0.0,
        "Inclination(deg)": 60.0,
        "Latitude(deg)": 59.28331787228412,
        "Longitude(deg)": 10.102990924826715,
        "Mean Anomaly(deg)": 82.43830614546184,
        "RAAN(deg)": 34.99957995086025,
        "Satellite Name": "Test1 159",
        "Satellite Number": 159,
        "Semi-Major Axis(m)": 6980739.136638005,
        "Time(s)": 10
    }
]